NORAD_CAT_ID,OBJECT_NAME,OBJECT_TYPE,EPOCH,MEAN_MOTION,ECCENTRICITY,INCLINATION,RA_OF_ASC_NODE,ARG_OF_PERICENTER,MEAN_ANOMALY,BSTAR,MEAN_MOTION_DOT,MEAN_MOTION_DDOT,TLE_LINE0,TLE_LINE1,TLE_LINE2,SEMIMAJOR_AXIS,PERIOD,APOGEE,PERIGEE,DECAYED
49430.0,STARLINK-3138,PAYLOAD,2022-08-31 10:02:00,15.08838248,0.0001746,53.215,243.432,57.25,302.866,-2.9491e-05,-7.57e-06,0.0,0 STARLINK-3138,1 49430U 21104Y   22243.41805595 -.00000757  00000-0 -29491-4 0  9998,2 49430  53.2150 243.4320 0001746  57.2500 302.8660 15.08838248 45521,6917.886,95.438,540.9590000000002,538.543,0.0
49430.0,STARLINK-3138,PAYLOAD,2022-09-01 11:28:10,15.08843649,0.0001769,53.2151,238.674,57.4314,302.6848,0.00011948,1.614e-05,0.0,0 STARLINK-3138,1 49430U 21104Y   22244.47789442  .00001614  00000-0  11948-3 0  9995,2 49430  53.2151 238.6740 0001769  57.4314 302.6848 15.08843649 44610,6917.869000000002,95.437,540.9580000000002,538.51,0.0
49430.0,STARLINK-3138,PAYLOAD,2022-09-02 04:57:25,15.08833878,0.0001968,53.2152,235.4031,59.577,300.5417,0.00063008,9.752e-05,0.0,0 STARLINK-3138,1 49430U 21104Y   22245.20654081  .00009752  00000-0  63008-3 0  9992,2 49430  53.2152 235.4031 0001968  59.5770 300.5417 15.08833878 45791,6917.899,95.438,541.126,538.403,0.0
49430.0,STARLINK-3138,PAYLOAD,2022-09-02 11:18:57,15.08846282,0.0001827,53.2151,234.2136,58.5372,301.5798,0.00030868,4.629e-05,0.0,0 STARLINK-3138,1 49430U 21104Y   22245.47149422  .00004629  00000-0  30868-3 0  9995,2 49430  53.2151 234.2136 0001827  58.5372 301.5798 15.08846282 44766,6917.861,95.437,540.99,538.462,0.0
49430.0,STARLINK-3138,PAYLOAD,2022-09-02 16:05:06,15.08848638,0.0001803,53.2152,233.3215,57.3435,302.7731,0.00032525,4.893e-05,0.0,0 STARLINK-3138,1 49430U 21104Y   22245.67021296  .00004893  00000-0  32525-3 0  9990,2 49430  53.2152 233.3215 0001803  57.3435 302.7731 15.08848638 44796,6917.854,95.437,540.966,538.472,0.0
49430.0,STARLINK-3138,PAYLOAD,2022-09-03 09:34:20,15.08840854,0.0002208,53.215,230.0505,53.8115,306.3081,5.7775e-05,6.31e-06,0.0,0 STARLINK-3138,1 49430U 21104Y   22246.39885394  .00000631  00000-0  57775-4 0  9998,2 49430  53.2150 230.0505 0002208  53.8115 306.3081 15.08840854 45977,6917.878000000002,95.438,541.27,538.215,0.0
49430.0,STARLINK-3138,PAYLOAD,2022-09-04 11:00:30,15.08849228,0.0001874,53.215,225.2928,56.9188,303.1984,0.00021292,3.103e-05,0.0,0 STARLINK-3138,1 49430U 21104Y   22247.45868923  .00003103  00000-0  21292-3 0  9996,2 49430  53.2150 225.2928 0001874  56.9188 303.1984 15.08849228 46134,6917.852,95.437,541.014,538.4209999999998,0.0
49430.0,STARLINK-3138,PAYLOAD,2022-09-04 15:46:40,15.08852934,0.0001818,53.215,224.4005,57.7877,302.3291,0.00029131,4.353e-05,0.0,0 STARLINK-3138,1 49430U 21104Y   22247.65740744  .00004353  00000-0  29131-3 0  9996,2 49430  53.2150 224.4005 0001818  57.7877 302.3291 15.08852934 45097,6917.840999999999,95.437,540.964,538.448,0.0
49430.0,STARLINK-3138,PAYLOAD,2022-09-05 09:15:54,15.08848446,0.0001865,53.2137,221.1313,57.6022,302.5151,0.0001081,1.433e-05,0.0,0 STARLINK-3138,1 49430U 21104Y   22248.38604258  .00001433  00000-0  10810-3 0  9996,2 49430  53.2137 221.1313 0001865  57.6022 302.5151 15.08848446 45204,6917.855,95.437,541.01,538.429,0.0
49430.0,STARLINK-3138,PAYLOAD,2022-09-06 04:20:31,15.08843964,0.0001706,53.2145,217.5608,57.6424,302.4733,2.4027e-05,9.4e-07,0.0,0 STARLINK-3138,1 49430U 21104Y   22249.18092286  .00000094  00000-0  24027-4 0  9995,2 49430  53.2145 217.5608 0001706  57.6424 302.4733 15.08843964 46395,6917.868,95.437,540.913,538.553,0.0
49430.0,STARLINK-3138,PAYLOAD,2022-09-06 09:06:41,15.08836557,0.000186,53.2149,216.669,55.309,304.8077,-8.4568e-05,-1.634e-05,0.0,0 STARLINK-3138,1 49430U 21104Y   22249.37964696 -.00001634  00000-0 -84568-4 0  9998,2 49430  53.2149 216.6690 0001860  55.3090 304.8077 15.08836557 45357,6917.891,95.438,541.043,538.469,0.0
49430.0,STARLINK-3138,PAYLOAD,2022-09-06 15:28:14,15.08825587,0.0001724,53.2143,215.4787,57.8308,302.2851,-0.00025871,-4.401e-05,0.0,0 STARLINK-3138,1 49430U 21104Y   22249.64461196 -.00004401  00000-0 -25871-3 0  9991,2 49430  53.2143 215.4787 0001724  57.8308 302.2851 15.08825587 46469,6917.924,95.438,540.982,538.597,0.0
49430.0,STARLINK-3138,PAYLOAD,2022-09-07 08:57:29,15.08833719,0.0001784,53.2146,212.2085,52.7396,307.3759,1.8248e-05,2e-08,0.0,0 STARLINK-3138,1 49430U 21104Y   22250.37325451  .00000002  00000-0  18248-4 0  9998,2 49430  53.2146 212.2085 0001784  52.7396 307.3759 15.08833719 46576,6917.9,95.438,540.999,538.53,0.0
49430.0,STARLINK-3138,PAYLOAD,2022-09-08 08:48:16,15.08853024,0.0001733999999999,53.2152,207.748,52.7923,307.3227,0.00066652,0.00010339,0.0,0 STARLINK-3138,1 49430U 21104Y   22251.36685455  .00010339  00000-0  66652-3 0  9996,2 49430  53.2152 207.7480 0001734  52.7923 307.3227 15.08853024 46720,6917.840999999999,95.437,540.905,538.506,0.0
49430.0,STARLINK-3138,PAYLOAD,2022-09-09 03:52:53,15.08850549,0.0001726,53.2156,204.1797,56.3372,303.7784,0.00029107,4.349e-05,0.0,0 STARLINK-3138,1 49430U 21104Y   22252.16173202  .00004349  00000-0  29107-3 0  9995,2 49430  53.2156 204.1797 0001726  56.3372 303.7784 15.08850549 46845,6917.848000000001,95.437,540.9069999999998,538.519,0.0
49430.0,STARLINK-3138,PAYLOAD,2022-09-09 08:39:02,15.08855958,0.0001675,53.2156,203.2878,54.593,305.5218,0.00036642,5.551e-05,0.0,0 STARLINK-3138,1 49430U 21104Y   22252.36044930  .00005551  00000-0  36642-3 0  9990,2 49430  53.2156 203.2878 0001675  54.5930 305.5218 15.08855958 45804,6917.831999999999,95.437,540.855,538.538,0.0
49430.0,STARLINK-3138,PAYLOAD,2022-09-10 03:43:40,15.08846219,0.0001721999999999,53.2159,199.7189,52.6615,307.4534,5.187e-05,5.38e-06,0.0,0 STARLINK-3138,1 49430U 21104Y   22253.15532868  .00000538  00000-0  51870-4 0  9991,2 49430  53.2159 199.7189 0001722  52.6615 307.4534 15.08846219 46996,6917.861,95.437,540.918,538.535,0.0
49430.0,STARLINK-3138,PAYLOAD,2022-09-10 06:54:26,15.08837691,0.0001702,53.2159,199.1241,57.0519,303.0637,-0.00010843,-2.013e-05,0.0,0 STARLINK-3138,1 49430U 21104Y   22253.28781198 -.00002013  00000-0 -10843-3 0  9993,2 49430  53.2159 199.1241 0001702  57.0519 303.0637 15.08837691 47013,6917.887,95.438,540.93,538.575,0.0
49430.0,STARLINK-3138,PAYLOAD,2022-09-10 19:37:31,15.08844794,0.0002186,53.2156,196.7455,54.9962,305.1235,-5.6761e-05,-1.192e-05,0.0,0 STARLINK-3138,1 49430U 21104Y   22253.81772701 -.00001192  00000-0 -56761-4 0  9999,2 49430  53.2156 196.7455 0002186  54.9962 305.1235 15.08844794 46024,6917.866,95.437,541.243,538.2180000000002,0.0
49430.0,STARLINK-3138,PAYLOAD,2022-09-11 06:45:13,15.08839381,0.0001712,53.2161,194.6641,62.3541,297.7625,-5.109e-05,-1.101e-05,0.0,0 STARLINK-3138,1 49430U 21104Y   22254.28141099 -.00001101  00000-0 -51090-4 0  9991,2 49430  53.2161 194.6641 0001712  62.3541 297.7625 15.08839381 47165,6917.882,95.438,540.932,538.563,0.0
49430.0,STARLINK-3138,PAYLOAD,2022-09-12 08:11:23,15.08845318,0.000186,53.2163,189.9069,54.7197,305.3969,7.5682e-05,9.17e-06,0.0,0 STARLINK-3138,1 49430U 21104Y   22255.34124778  .00000917  00000-0  75682-4 0  9999,2 49430  53.2163 189.9069 0001860  54.7197 305.3969 15.08845318 47326,6917.864000000001,95.437,541.016,538.442,0.0
49430.0,STARLINK-3138,PAYLOAD,2022-09-13 12:48:20,15.0884415,0.0001774999999999,53.2159,184.5537,58.5712,301.5453,0.00013941,1.932e-05,0.0,0 STARLINK-3138,1 49430U 21104Y   22256.53356688  .00001932  00000-0  13941-3 0  9995,2 49430  53.2159 184.5537 0001775  58.5712 301.5453 15.08844150 47501,6917.868,95.437,540.961,538.505,0.0
49430.0,STARLINK-3138,PAYLOAD,2022-09-13 19:09:52,15.08841419,0.0001981,53.2159,183.3639,65.5477,294.5722,5.4402e-05,5.78e-06,0.0,0 STARLINK-3138,1 49430U 21104Y   22256.79852834  .00000578  00000-0  54402-4 0  9990,2 49430  53.2159 183.3639 0001981  65.5477 294.5722 15.08841419 46476,6917.876,95.437,541.111,538.371,0.0
49430.0,STARLINK-3138,PAYLOAD,2022-09-14 03:06:48,15.08838989,0.0001776999999999,53.2164,181.8778,57.4447,302.6717,4.9715e-05,5.03e-06,0.0,0 STARLINK-3138,1 49430U 21104Y   22257.12973073  .00000503  00000-0  49715-4 0  9996,2 49430  53.2164 181.8778 0001777  57.4447 302.6717 15.08838989 47596,6917.8830000000025,95.438,540.9780000000002,538.519,0.0
49430.0,STARLINK-3138,PAYLOAD,2022-09-14 06:17:34,15.08843476,0.0001725,53.2163,181.2831,59.3973,300.7189,2.6235e-05,1.3e-06,0.0,0 STARLINK-3138,1 49430U 21104Y   22257.26220844  .00000130  00000-0  26235-4 0  9990,2 49430  53.2163 181.2831 0001725  59.3973 300.7189 15.08843476 46540,6917.87,95.437,540.928,538.5409999999998,0.0
49430.0,STARLINK-3138,PAYLOAD,2022-09-14 19:00:40,15.08834973,0.0001855,53.2162,178.9038,52.8743,307.2419,5.7871e-05,6.33e-06,0.0,0 STARLINK-3138,1 49430U 21104Y   22257.79213641  .00000633  00000-0  57871-4 0  9993,2 49430  53.2162 178.9038 0001855  52.8743 307.2419 15.08834973 47695,6917.896,95.438,541.044,538.477,0.0
49430.0,STARLINK-3138,PAYLOAD,2022-09-15 06:08:22,15.08833215,0.0001749,53.216,176.8226,53.433,306.6823,6.735e-05,7.84e-06,0.0,0 STARLINK-3138,1 49430U 21104Y   22258.25581848  .00000784  00000-0  67350-4 0  9992,2 49430  53.2160 176.8226 0001749  53.4330 306.6823 15.08833215 46699,6917.901,95.438,540.976,538.556,0.0
49430.0,STARLINK-3138,PAYLOAD,2022-09-15 20:26:50,15.08841523,0.0001556,53.2158,174.146,55.7714,304.3425,0.00032528,4.893e-05,0.0,0 STARLINK-3138,1 49430U 21104Y   22258.85197843  .00004893  00000-0  32528-3 0  9999,2 49430  53.2158 174.1460 0001556  55.7714 304.3425 15.08841523 46788,6917.876,95.437,540.817,538.664,0.0
49430.0,STARLINK-3138,PAYLOAD,2022-09-15 22:02:13,15.08847415,0.0001679,53.2159,173.8492,55.1255,304.9895,0.0004409,6.737e-05,0.0,0 STARLINK-3138,1 49430U 21104Y   22258.91821701  .00006737  00000-0  44090-3 0  9999,2 49430  53.2159 173.8492 0001679  55.1255 304.9895 15.08847415 47863,6917.858,95.437,540.884,538.561,0.0
